NORAD_CAT_ID,OBJECT_NAME,OBJECT_TYPE,EPOCH,MEAN_MOTION,ECCENTRICITY,INCLINATION,RA_OF_ASC_NODE,ARG_OF_PERICENTER,MEAN_ANOMALY,BSTAR,MEAN_MOTION_DOT,MEAN_MOTION_DDOT,TLE_LINE0,TLE_LINE1,TLE_LINE2,SEMIMAJOR_AXIS,PERIOD,APOGEE,PERIGEE,DECAYED
52862.0,STARLINK-4010,PAYLOAD,2023-10-09 16:29:32,15.08866005,0.0001655,53.2186,23.5811,85.3566,274.7616,0.00058274,9.005e-05,0.0,0 STARLINK-4010,1 52862U 22062AJ  23282.68717905  .00009005  00000-0  58274-3 0  9998,2 52862  53.2186  23.5811 0001655  85.3566 274.7616 15.08866005 73260,6917.801,95.436,540.811,538.521,0.0
52862.0,STARLINK-4010,PAYLOAD,2023-10-10 13:09:33,15.08858315,0.0001612,53.2182,19.7196,85.5168,274.6008,0.0001611,2.278e-05,0.0,0 STARLINK-4010,1 52862U 22062AJ  23283.54830112  .00002278  00000-0  16110-3 0  9998,2 52862  53.2182  19.7196 0001612  85.5168 274.6008 15.08858315 73395,6917.824,95.436,540.805,538.574,0.0
52862.0,STARLINK-4010,PAYLOAD,2023-10-10 14:44:56,15.08850674,0.0001714,53.218,19.4192,90.8975,269.2213,0.00047587,7.296e-05,0.0,0 STARLINK-4010,1 52862U 22062AJ  23283.61454091  .00007296  00000-0  47587-3 0  9991,2 52862  53.2180  19.4192 0001714  90.8975 269.2213 15.08850674 72919,6917.848,95.437,540.898,538.527,0.0
52862.0,STARLINK-4010,PAYLOAD,2023-10-11 13:00:20,15.08832167,0.0001402,53.2189,15.2572,92.5781,267.5372,0.00033577,5.059e-05,0.0,0 STARLINK-4010,1 52862U 22062AJ  23284.54190951  .00005059  00000-0  33577-3 0  9995,2 52862  53.2189  15.2572 0001402  92.5781 267.5372 15.08832167 73546,6917.904,95.438,540.739,538.799,0.0
52862.0,STARLINK-4010,PAYLOAD,2023-10-12 12:51:08,15.08845831,0.0001434,53.219,10.7989,90.4481,269.6676,0.00066277,0.00010277,0.0,0 STARLINK-4010,1 52862U 22062AJ  23285.53551405  .00010277  00000-0  66277-3 0  9991,2 52862  53.2190  10.7989 0001434  90.4481 269.6676 15.08845831 73204,6917.863,95.437,540.72,538.736,0.0
52862.0,STARLINK-4010,PAYLOAD,2023-10-12 14:26:31,15.08848548,0.0001514,53.2187,10.5004,87.5604,272.5562,0.00086346,0.00013484,0.0,0 STARLINK-4010,1 52862U 22062AJ  23285.60175303  .00013484  00000-0  86346-3 0  9990,2 52862  53.2187  10.5004 0001514  87.5604 272.5562 15.08848548 73709,6917.854,95.437,540.767,538.672,0.0
52862.0,STARLINK-4010,PAYLOAD,2023-10-13 12:41:55,15.08854308,0.000128,53.2176,6.3381,97.3606,262.7532,0.00071275,0.00011078,0.0,0 STARLINK-4010,1 52862U 22062AJ  23286.52911388  .00011078  00000-0  71275-3 0  9995,2 52862  53.2176   6.3381 0001280  97.3606 262.7532 15.08854308 73843,6917.837,95.437,540.587,538.816,0.0
52862.0,STARLINK-4010,PAYLOAD,2023-10-14 10:57:19,15.08852127,0.0002089,53.2187,2.1738,81.4261,278.6967,0.00067563,0.00010485,0.0,0 STARLINK-4010,1 52862U 22062AJ  23287.45647146  .00010485  00000-0  67563-3 0  9992,2 52862  53.2187   2.1738 0002089  81.4261 278.6967 15.08852127 73984,6917.843,95.437,541.153,538.263,0.0
52862.0,STARLINK-4010,PAYLOAD,2023-10-14 14:08:05,15.08860774,0.0001926,53.2183,1.5791,77.8112,282.3096,0.00072063,0.00011206,0.0,0 STARLINK-4010,1 52862U 22062AJ  23287.58894780  .00011206  00000-0  72063-3 0  9997,2 52862  53.2183   1.5791 0001926  77.8112 282.3096 15.08860774 73516,6917.817,95.436,541.014,538.35,0.0
52862.0,STARLINK-4010,PAYLOAD,2023-10-14 22:05:00,15.08838872,0.0001232,53.2179,0.0931,95.9621,264.1512,-0.00019003,-3.311e-05,0.0,0 STARLINK-4010,1 52862U 22062AJ  23287.92014907 -.00003311  00000-0 -19003-3 0  9995,2 52862  53.2179   0.0931 0001232  95.9621 264.1512 15.08838872 73567,6917.884,95.438,540.601,538.897,0.0
52862.0,STARLINK-4010,PAYLOAD,2023-10-15 04:26:34,15.08814907,0.0001483,53.217,358.9044,97.4399,262.6762,-0.00070661,-0.00011508,0.0,0 STARLINK-4010,1 52862U 22062AJ  23288.18511617 -.00011508  00000-0 -70661-3 0  9998,2 52862  53.2170 358.9044 0001483  97.4399 262.6762 15.08814907 74097,6917.957,95.439,540.848,538.796,0.0
52862.0,STARLINK-4010,PAYLOAD,2023-10-15 12:23:30,15.08824558,0.0001554,53.217,357.418,93.3403,266.7767,-0.00022144,-3.809e-05,0.0,0 STARLINK-4010,1 52862U 22062AJ  23288.51632193 -.00003809  00000-0 -22144-3 0  9996,2 52862  53.2170 357.4180 0001554  93.3403 266.7767 15.08824558 73656,6917.928,95.439,540.868,538.718,0.0
52862.0,STARLINK-4010,PAYLOAD,2023-10-15 21:55:49,15.08827239,0.0001568,53.2164,355.633,94.8068,265.3103,0.00032368,4.865e-05,0.0,0 STARLINK-4010,1 52862U 22062AJ  23288.91376631  .00004865  00000-0  32368-3 0  9992,2 52862  53.2164 355.6330 0001568  94.8068 265.3103 15.08827239 73719,6917.919,95.438,540.869,538.7,0.0
52862.0,STARLINK-4010,PAYLOAD,2023-10-16 04:17:22,15.08836833,0.0001595,53.2161,354.4434,94.3185,265.7989,0.0010989,0.00017243,0.0,0 STARLINK-4010,1 52862U 22062AJ  23289.17872933  .00017243  00000-0  10989-2 0  9995,2 52862  53.2161 354.4434 0001595  94.3185 265.7989 15.08836833 74248,6917.89,95.438,540.858,538.652,0.0
52862.0,STARLINK-4010,PAYLOAD,2023-10-16 10:38:54,15.08854734,0.0001623,53.216,353.2543,92.0632,268.0546,0.0015393,0.00024305,0.0,0 STARLINK-4010,1 52862U 22062AJ  23289.44368732  .00024305  00000-0  15393-2 0  9993,2 52862  53.2160 353.2543 0001623  92.0632 268.0546 15.08854734 73793,6917.835,95.437,540.823,538.578,0.0
52862.0,STARLINK-4010,PAYLOAD,2023-10-17 10:29:41,15.08850839,0.0001509,53.2163,348.7943,94.9978,265.1187,0.0013054,0.00020555,0.0,0 STARLINK-4010,1 52862U 22062AJ  23290.43728305  .00020555  00000-0  13054-2 0  9995,2 52862  53.2163 348.7943 0001509  94.9978 265.1187 15.08850839 74439,6917.847,95.437,540.756,538.668,0.0
52862.0,STARLINK-4010,PAYLOAD,2023-10-17 21:37:23,15.08839988,0.0001475,53.2168,346.7125,86.3228,273.7933,0.00010691,1.414e-05,0.0,0 STARLINK-4010,1 52862U 22062AJ  23290.90096331  .00001414  00000-0  10691-3 0  9992,2 52862  53.2168 346.7125 0001475  86.3228 273.7933 15.08839988 74019,6917.88,95.438,540.766,538.725,0.0
52862.0,STARLINK-4010,PAYLOAD,2023-10-18 10:20:28,15.08849602,0.0001406,53.217,344.3336,81.0122,279.1029,0.00069498,0.00010793,0.0,0 STARLINK-4010,1 52862U 22062AJ  23291.43088282  .00010793  00000-0  69498-3 0  9996,2 52862  53.2170 344.3336 0001406  81.0122 279.1029 15.08849602 74581,6917.851,95.437,540.689,538.743,0.0
52862.0,STARLINK-4010,PAYLOAD,2023-10-19 10:11:14,15.08857767,0.0001701,53.218,339.8717,87.1306,272.9881,0.00059746,9.238e-05,0.0,0 STARLINK-4010,1 52862U 22062AJ  23292.42447900  .00009238  00000-0  59746-3 0  9999,2 52862  53.2180 339.8717 0001701  87.1306 272.9881 15.08857767 74738,6917.826,95.436,540.868,538.514,0.0
52862.0,STARLINK-4010,PAYLOAD,2023-10-19 13:22:01,15.08862502,0.0001703,53.2179,339.2756,88.204,271.9147,0.00069999,0.00010877,0.0,0 STARLINK-4010,1 52862U 22062AJ  23292.55695669  .00010877  00000-0  69999-3 0  9992,2 52862  53.2179 339.2756 0001703  88.2040 271.9147 15.08862502 74267,6917.812,95.436,540.855,538.499,0.0
52862.0,STARLINK-4010,PAYLOAD,2023-10-19 19:43:34,15.08842912,0.0002385,53.217,338.086,78.3258,281.8002,0.00014061,1.95e-05,0.0,0 STARLINK-4010,1 52862U 22062AJ  23292.82192376  .00001950  00000-0  14061-3 0  9991,2 52862  53.2170 338.0860 0002385  78.3258 281.8002 15.08842912 74790,6917.871,95.437,541.386,538.087,0.0
52862.0,STARLINK-4010,PAYLOAD,2023-10-20 10:02:02,15.08838041,0.0001573,53.2183,335.4125,92.7924,267.3249,2.2306e-05,6.7e-07,0.0,0 STARLINK-4010,1 52862U 22062AJ  23293.41808259  .00000067  00000-0  22306-4 0  9991,2 52862  53.2183 335.4125 0001573  92.7924 267.3249 15.08838041 74393,6917.886,95.438,540.84,538.663,0.0
52862.0,STARLINK-4010,PAYLOAD,2023-10-21 09:52:49,15.08840383,0.0001515,53.2179,330.9531,100.0884,260.0279,0.00025967,3.847e-05,0.0,0 STARLINK-4010,1 52862U 22062AJ  23294.41168728  .00003847  00000-0  25967-3 0  9996,2 52862  53.2179 330.9531 0001515 100.0884 260.0279 15.08840383 74545,6917.879,95.438,540.792,538.696,0.0
52862.0,STARLINK-4010,PAYLOAD,2023-10-21 19:25:08,15.08840084,0.0001469,53.2176,329.169,95.9176,264.1984,0.00028237,4.209e-05,0.0,0 STARLINK-4010,1 52862U 22062AJ  23294.80912850  .00004209  00000-0  28237-3 0  9998,2 52862  53.2176 329.1690 0001469  95.9176 264.1984 15.08840084 75099,6917.88,95.438,540.761,538.729,0.0
52862.0,STARLINK-4010,PAYLOAD,2023-10-22 11:18:59,15.08854322,0.0001509,53.2177,326.1962,96.6231,263.4933,0.00046563,7.133e-05,0.0,0 STARLINK-4010,1 52862U 22062AJ  23295.47152336  .00007133  00000-0  46563-3 0  9998,2 52862  53.2177 326.1962 0001509  96.6231 263.4933 15.08854322 74707,6917.837,95.437,540.746,538.658,0.0
52862.0,STARLINK-4010,PAYLOAD,2023-10-22 19:15:55,15.08842411,0.0002089,53.2173,324.709,84.5012,275.6218,0.00013339,1.835e-05,0.0,0 STARLINK-4010,1 52862U 22062AJ  23295.80272878  .00001835  00000-0  13339-3 0  9997,2 52862  53.2173 324.7090 0002089  84.5012 275.6218 15.08842411 74758,6917.873,95.437,541.183,538.293,0.0
52862.0,STARLINK-4010,PAYLOAD,2023-10-23 19:06:42,15.08840187,0.0001576,53.2165,320.2472,84.91,275.2072,0.00012138,1.644e-05,0.0,0 STARLINK-4010,1 52862U 22062AJ  23296.79632947  .00001644  00000-0  12138-3 0  9997,2 52862  53.2165 320.2472 0001576  84.9100 275.2072 15.08840187 74905,6917.88,95.438,540.835,538.655,0.0
52862.0,STARLINK-4010,PAYLOAD,2023-10-24 07:49:48,15.08843512,0.0001589,53.2168,317.8654,94.3046,265.8128,0.00015462,2.174e-05,0.0,0 STARLINK-4010,1 52862U 22062AJ  23297.32625003  .00002174  00000-0  15462-3 0  9994,2 52862  53.2168 317.8654 0001589  94.3046 265.8128 15.08843512 74980,6917.87,95.437,540.834,538.635,0.0
52862.0,STARLINK-4010,PAYLOAD,2023-10-25 10:51:21,15.08849288,0.000182,53.2168,312.8104,98.0336,262.0863,0.00030852,4.627e-05,0.0,0 STARLINK-4010,1 52862U 22062AJ  23298.45232878  .00004627  00000-0  30852-3 0  9998,2 52862  53.2168 312.8104 0001820  98.0336 262.0863 15.08849288 75641,6917.852,95.437,540.976,538.458,0.0
52862.0,STARLINK-4010,PAYLOAD,2023-10-26 04:20:35,15.08844939,0.00021,53.2156,309.5374,117.3352,242.7854,0.00017054,2.427e-05,0.0,0 STARLINK-4010,1 52862U 22062AJ  23299.18096936  .00002427  00000-0  17054-3 0  9997,2 52862  53.2156 309.5374 0002100 117.3352 242.7854 15.08844939 75750,6917.865,95.437,541.183,538.278,0.0
